{
  "type": "FeatureCollection",
  "features": [
    {
      "type": "Feature",
      "properties": {
        "norad_id": 32195,
        "name": "FENGYUN 1C DEB",
        "group": "fengyun-1c-debris",
        "lat": 65.22513905241306,
        "lon": -165.82310230548381,
        "alt_km": 907.3201186075803,
        "timestamp": "2025-12-18T08:58:43.697440+00:00",
        "meta_object_name": "FENGYUN 1C DEB",
        "meta_object_id": "1999-025CUR",
        "meta_epoch": "2025-12-13T17:37:09.979392",
        "meta_mean_motion": 14.08467164,
        "meta_eccentricity": 0.00686498,
        "meta_inclination": 98.7725,
        "meta_ra_of_asc_node": 350.1182,
        "meta_arg_of_pericenter": 297.5653,
        "meta_mean_anomaly": 61.8554,
        "meta_ephemeris_type": 0,
        "meta_classification_type": "U",
        "meta_norad_cat_id": 32195,
        "meta_element_set_no": 999,
        "meta_rev_at_epoch": 63996,
        "meta_bstar": 0.00078298942,
        "meta_mean_motion_dot": 1.329e-05,
        "meta_mean_motion_ddot": 0,
        "tle_line1": "1 32195U 99025CUR 25347.73414328  .00001329  00000+0  78299-3 0  9990",
        "tle_line2": "2 32195  98.7725 350.1182 0068649 297.5653  61.8554 14.08467164639963"
      },
      "geometry": {
        "type": "Point",
        "coordinates": [
          -165.82310230548381,
          65.22513905241306
        ]
      }
    },
    {
      "type": "Feature",
      "properties": {
        "norad_id": 32197,
        "name": "FENGYUN 1C DEB",
        "group": "fengyun-1c-debris",
        "lat": 5.576466126129906,
        "lon": -99.26877004457654,
        "alt_km": 886.7904940620501,
        "timestamp": "2025-12-18T08:58:43.697450+00:00",
        "meta_object_name": "FENGYUN 1C DEB",
        "meta_object_id": "1999-025CUT",
        "meta_epoch": "2025-12-13T12:29:47.615136",
        "meta_mean_motion": 14.32670821,
        "meta_eccentricity": 0.01611933,
        "meta_inclination": 98.9011,
        "meta_ra_of_asc_node": 256.6231,
        "meta_arg_of_pericenter": 227.5743,
        "meta_mean_anomaly": 319.2426,
        "meta_ephemeris_type": 0,
        "meta_classification_type": "U",
        "meta_norad_cat_id": 32197,
        "meta_element_set_no": 999,
        "meta_rev_at_epoch": 94434,
        "meta_bstar": 0.00063761997,
        "meta_mean_motion_dot": 1.951e-05,
        "meta_mean_motion_ddot": 0,
        "tle_line1": "1 32197U 99025CUT 25347.52068999  .00001951  00000+0  63762-3 0  9998",
        "tle_line2": "2 32197  98.9011 256.6231 0161193 227.5743 319.2426 14.32670821944343"
      },
      "geometry": {
        "type": "Point",
        "coordinates": [
          -99.26877004457654,
          5.576466126129906
        ]
      }
    },
    {
      "type": "Feature",
      "properties": {
        "norad_id": 32198,
        "name": "FENGYUN 1C DEB",
        "group": "fengyun-1c-debris",
        "lat": -64.2436417652731,
        "lon": -58.859230562062535,
        "alt_km": 810.8516913179592,
        "timestamp": "2025-12-18T08:58:43.697460+00:00",
        "meta_object_name": "FENGYUN 1C DEB",
        "meta_object_id": "1999-025CUU",
        "meta_epoch": "2025-12-17T02:50:00.320928",
        "meta_mean_motion": 14.08857661,
        "meta_eccentricity": 0.00954874,
        "meta_inclination": 98.3425,
        "meta_ra_of_asc_node": 137.6834,
        "meta_arg_of_pericenter": 279.8444,
        "meta_mean_anomaly": 79.1957,
        "meta_ephemeris_type": 0,
        "meta_classification_type": "U",
        "meta_norad_cat_id": 32198,
        "meta_element_set_no": 999,
        "meta_rev_at_epoch": 57007,
        "meta_bstar": 0.0016058245,
        "meta_mean_motion_dot": 2.853e-05,
        "meta_mean_motion_ddot": 0,
        "tle_line1": "1 32198U 99025CUU 25351.11805927  .00002853  00000+0  16058-2 0  9996",
        "tle_line2": "2 32198  98.3425 137.6834 0095487 279.8444  79.1957 14.08857661570072"
      },
      "geometry": {
        "type": "Point",
        "coordinates": [
          -58.859230562062535,
          -64.2436417652731
        ]
      }
    },
    {
      "type": "Feature",
      "properties": {
        "norad_id": 32200,
        "name": "FENGYUN 1C DEB",
        "group": "fengyun-1c-debris",
        "lat": -60.9582643081531,
        "lon": 57.44804104612602,
        "alt_km": 820.8832666961425,
        "timestamp": "2025-12-18T08:58:43.697471+00:00",
        "meta_object_name": "FENGYUN 1C DEB",
        "meta_object_id": "1999-025CUW",
        "meta_epoch": "2025-12-17T02:44:21.509376",
        "meta_mean_motion": 14.15716175,
        "meta_eccentricity": 0.00396637,
        "meta_inclination": 98.7901,
        "meta_ra_of_asc_node": 40.0253,
        "meta_arg_of_pericenter": 277.0703,
        "meta_mean_anomaly": 82.5961,
        "meta_ephemeris_type": 0,
        "meta_classification_type": "U",
        "meta_norad_cat_id": 32200,
        "meta_element_set_no": 999,
        "meta_rev_at_epoch": 94425,
        "meta_bstar": 0.00080205995,
        "meta_mean_motion_dot": 1.541e-05,
        "meta_mean_motion_ddot": 0,
        "tle_line1": "1 32200U 99025CUW 25351.11413784  .00001541  00000+0  80206-3 0  9996",
        "tle_line2": "2 32200  98.7901  40.0253 0039663 277.0703  82.5961 14.15716175944253"
      },
      "geometry": {
        "type": "Point",
        "coordinates": [
          57.44804104612602,
          -60.9582643081531
        ]
      }
    },
    {
      "type": "Feature",
      "properties": {
        "norad_id": 32203,
        "name": "FENGYUN 1C DEB",
        "group": "fengyun-1c-debris",
        "lat": 68.07939380768333,
        "lon": 81.45878286142674,
        "alt_km": 359.34727899567133,
        "timestamp": "2025-12-18T08:58:43.697481+00:00",
        "meta_object_name": "FENGYUN 1C DEB",
        "meta_object_id": "1999-025CUZ",
        "meta_epoch": "2025-12-17T10:41:46.209408",
        "meta_mean_motion": 15.41199783,
        "meta_eccentricity": 0.01435904,
        "meta_inclination": 97.0164,
        "meta_ra_of_asc_node": 242.7445,
        "meta_arg_of_pericenter": 74.9907,
        "meta_mean_anomaly": 286.7182,
        "meta_ephemeris_type": 0,
        "meta_classification_type": "U",
        "meta_norad_cat_id": 32203,
        "meta_element_set_no": 999,
        "meta_rev_at_epoch": 75170,
        "meta_bstar": 0.00067055769,
        "meta_mean_motion_dot": 0.00040516,
        "meta_mean_motion_ddot": 0,
        "tle_line1": "1 32203U 99025CUZ 25351.44567372  .00040516  00000+0  67056-3 0  9991",
        "tle_line2": "2 32203  97.0164 242.7445 0143590  74.9907 286.7182 15.41199783751707"
      },
      "geometry": {
        "type": "Point",
        "coordinates": [
          81.45878286142674,
          68.07939380768333
        ]
      }
    },
    {
      "type": "Feature",
      "properties": {
        "norad_id": 32205,
        "name": "FENGYUN 1C DEB",
        "group": "fengyun-1c-debris",
        "lat": -53.37484580311865,
        "lon": 164.25229331956982,
        "alt_km": 847.473313764247,
        "timestamp": "2025-12-18T08:58:43.697505+00:00",
        "meta_object_name": "FENGYUN 1C DEB",
        "meta_object_id": "1999-025CVB",
        "meta_epoch": "2025-12-17T06:30:28.072800",
        "meta_mean_motion": 14.13914463,
        "meta_eccentricity": 0.00099842,
        "meta_inclination": 98.6782,
        "meta_ra_of_asc_node": 355.0381,
        "meta_arg_of_pericenter": 277.8929,
        "meta_mean_anomaly": 105.3715,
        "meta_ephemeris_type": 0,
        "meta_classification_type": "U",
        "meta_norad_cat_id": 32205,
        "meta_element_set_no": 999,
        "meta_rev_at_epoch": 94562,
        "meta_bstar": 0.00016013704,
        "meta_mean_motion_dot": 2.61e-06,
        "meta_mean_motion_ddot": 0,
        "tle_line1": "1 32205U 99025CVB 25351.27115825  .00000261  00000+0  16014-3 0  9997",
        "tle_line2": "2 32205  98.6782 355.0381 0009984 277.8929 105.3715 14.13914463945627"
      },
      "geometry": {
        "type": "Point",
        "coordinates": [
          164.25229331956982,
          -53.37484580311865
        ]
      }
    },
    {
      "type": "Feature",
      "properties": {
        "norad_id": 32207,
        "name": "FENGYUN 1C DEB",
        "group": "fengyun-1c-debris",
        "lat": 52.28311616534856,
        "lon": 145.12185581925158,
        "alt_km": 694.2898877638363,
        "timestamp": "2025-12-18T08:58:43.697518+00:00",
        "meta_object_name": "FENGYUN 1C DEB",
        "meta_object_id": "1999-025CVD",
        "meta_epoch": "2025-12-12T04:00:31.760928",
        "meta_mean_motion": 14.39569701,
        "meta_eccentricity": 0.00852472,
        "meta_inclination": 99.8553,
        "meta_ra_of_asc_node": 305.0027,
        "meta_arg_of_pericenter": 139.3042,
        "meta_mean_anomaly": 236.8167,
        "meta_ephemeris_type": 0,
        "meta_classification_type": "U",
        "meta_norad_cat_id": 32207,
        "meta_element_set_no": 999,
        "meta_rev_at_epoch": 64299,
        "meta_bstar": 0.00048704631,
        "meta_mean_motion_dot": 1.529e-05,
        "meta_mean_motion_ddot": 0,
        "tle_line1": "1 32207U 99025CVD 25346.16703427  .00001529  00000+0  48705-3 0  9992",
        "tle_line2": "2 32207  99.8553 305.0027 0085247 139.3042 236.8167 14.39569701642998"
      },
      "geometry": {
        "type": "Point",
        "coordinates": [
          145.12185581925158,
          52.28311616534856
        ]
      }
    }
  ]
}